[
  {
    "OBJECT_NAME": "STARLINK-5023",
    "OBJECT_ID": "22119AK",
    "EPOCH": "2025-11-10T21:36:58.961952",
    "MEAN_MOTION": 15.08841337,
    "ECCENTRICITY": 0.0001449,
    "INCLINATION": 53.2144,
    "RA_OF_ASC_NODE": 127.249,
    "ARG_OF_PERICENTER": 90.9825,
    "MEAN_ANOMALY": 269.1333,
    "EPHEMERIS_TYPE": 0,
    "CLASSIFICATION_TYPE": "U",
    "NORAD_CAT_ID": 53919,
    "ELEMENT_SET_NO": 999,
    "REV_AT_EPOCH": 17389,
    "BSTAR": 0.0,
    "MEAN_MOTION_DOT": -3.59e-06,
    "MEAN_MOTION_DDOT": 0.0,
    "TLE_LINE1": "1 53919U 22119AK  25314.90068243 -.00000359  00000+0 -44551-5 0  9991",
    "TLE_LINE2": "2 53919  53.2144 127.2490 0001449  90.9825 269.1333 15.08841337173899",
    "COMMENT": "Grouped by shell and plane from TLE"
  },
  {
    "OBJECT_NAME": "STARLINK-5025",
    "OBJECT_ID": "22119AL",
    "EPOCH": "2025-11-10T20:29:31.426944",
    "MEAN_MOTION": 15.08832213,
    "ECCENTRICITY": 0.0001209,
    "INCLINATION": 53.2135,
    "RA_OF_ASC_NODE": 127.6626,
    "ARG_OF_PERICENTER": 89.6689,
    "MEAN_ANOMALY": 270.4441,
    "EPHEMERIS_TYPE": 0,
    "CLASSIFICATION_TYPE": "U",
    "NORAD_CAT_ID": 53920,
    "ELEMENT_SET_NO": 999,
    "REV_AT_EPOCH": 17388,
    "BSTAR": 0.00026269,
    "MEAN_MOTION_DOT": 3.894e-05,
    "MEAN_MOTION_DDOT": 0.0,
    "TLE_LINE1": "1 53920U 22119AL  25314.85383596  .00003894  00000+0  26269-3 0  9997",
    "TLE_LINE2": "2 53920  53.2135 127.6626 0001209  89.6689 270.4441 15.08832213173880",
    "COMMENT": "Grouped by shell and plane from TLE"
  },
  {
    "OBJECT_NAME": "STARLINK-5002",
    "OBJECT_ID": "22119AN",
    "EPOCH": "2025-11-10T11:48:44.916192",
    "MEAN_MOTION": 15.08864104,
    "ECCENTRICITY": 0.0002099,
    "INCLINATION": 53.2123,
    "RA_OF_ASC_NODE": 128.9645,
    "ARG_OF_PERICENTER": 101.3234,
    "MEAN_ANOMALY": 258.7994,
    "EPHEMERIS_TYPE": 0,
    "CLASSIFICATION_TYPE": "U",
    "NORAD_CAT_ID": 53922,
    "ELEMENT_SET_NO": 999,
    "REV_AT_EPOCH": 17383,
    "BSTAR": 0.00056573,
    "MEAN_MOTION_DOT": 8.733e-05,
    "MEAN_MOTION_DDOT": 0.0,
    "TLE_LINE1": "1 53922U 22119AN  25314.49218653  .00008733  00000+0  56573-3 0  9998",
    "TLE_LINE2": "2 53922  53.2123 128.9645 0002099 101.3234 258.7994 15.08864104173831",
    "COMMENT": "Grouped by shell and plane from TLE"
  },
  {
    "OBJECT_NAME": "STARLINK-5004",
    "OBJECT_ID": "22119AP",
    "EPOCH": "2025-11-10T21:31:40.698048",
    "MEAN_MOTION": 15.08839503,
    "ECCENTRICITY": 0.0001398,
    "INCLINATION": 53.2159,
    "RA_OF_ASC_NODE": 127.2278,
    "ARG_OF_PERICENTER": 88.9957,
    "MEAN_ANOMALY": 271.1196,
    "EPHEMERIS_TYPE": 0,
    "CLASSIFICATION_TYPE": "U",
    "NORAD_CAT_ID": 53923,
    "ELEMENT_SET_NO": 999,
    "REV_AT_EPOCH": 17389,
    "BSTAR": 3.4970000000000006e-05,
    "MEAN_MOTION_DOT": 2.69e-06,
    "MEAN_MOTION_DDOT": 0.0,
    "TLE_LINE1": "1 53923U 22119AP  25314.89699882  .00000269  00000+0  34970-4 0  9994",
    "TLE_LINE2": "2 53923  53.2159 127.2278 0001398  88.9957 271.1196 15.08839503173892",
    "COMMENT": "Grouped by shell and plane from TLE"
  },
  {
    "OBJECT_NAME": "STARLINK-5001",
    "OBJECT_ID": "22119AQ",
    "EPOCH": "2025-11-11T04:01:51.701664",
    "MEAN_MOTION": 15.08834846,
    "ECCENTRICITY": 0.0001338,
    "INCLINATION": 53.2169,
    "RA_OF_ASC_NODE": 121.0912,
    "ARG_OF_PERICENTER": 91.3545,
    "MEAN_ANOMALY": 268.7601,
    "EPHEMERIS_TYPE": 0,
    "CLASSIFICATION_TYPE": "U",
    "NORAD_CAT_ID": 53924,
    "ELEMENT_SET_NO": 999,
    "REV_AT_EPOCH": 17400,
    "BSTAR": 0.00024736,
    "MEAN_MOTION_DOT": 3.65e-05,
    "MEAN_MOTION_DDOT": 0.0,
    "TLE_LINE1": "1 53924U 22119AQ  25315.16795951  .00003650  00000+0  24736-3 0  9995",
    "TLE_LINE2": "2 53924  53.2169 121.0912 0001338  91.3545 268.7601 15.08834846174008",
    "COMMENT": "Grouped by shell and plane from TLE"
  },
  {
    "OBJECT_NAME": "STARLINK-5011",
    "OBJECT_ID": "22119AR",
    "EPOCH": "2025-11-11T06:32:09.329280",
    "MEAN_MOTION": 15.08839987,
    "ECCENTRICITY": 0.0001229,
    "INCLINATION": 53.2161,
    "RA_OF_ASC_NODE": 125.3149,
    "ARG_OF_PERICENTER": 88.8961,
    "MEAN_ANOMALY": 271.2172,
    "EPHEMERIS_TYPE": 0,
    "CLASSIFICATION_TYPE": "U",
    "NORAD_CAT_ID": 53925,
    "ELEMENT_SET_NO": 999,
    "REV_AT_EPOCH": 17395,
    "BSTAR": 8.1519e-05,
    "MEAN_MOTION_DOT": 1.01e-05,
    "MEAN_MOTION_DDOT": 0.0,
    "TLE_LINE1": "1 53925U 22119AR  25315.27233020  .00001010  00000+0  81519-4 0  9993",
    "TLE_LINE2": "2 53925  53.2161 125.3149 0001229  88.8961 271.2172 15.08839987173958",
    "COMMENT": "Grouped by shell and plane from TLE"
  },
  {
    "OBJECT_NAME": "STARLINK-5014",
    "OBJECT_ID": "22119AS",
    "EPOCH": "2025-11-11T03:45:54.915840",
    "MEAN_MOTION": 15.08853906,
    "ECCENTRICITY": 0.0001105,
    "INCLINATION": 53.215,
    "RA_OF_ASC_NODE": 121.0199,
    "ARG_OF_PERICENTER": 82.1953,
    "MEAN_ANOMALY": 277.9165,
    "EPHEMERIS_TYPE": 0,
    "CLASSIFICATION_TYPE": "U",
    "NORAD_CAT_ID": 53926,
    "ELEMENT_SET_NO": 999,
    "REV_AT_EPOCH": 17401,
    "BSTAR": 0.0,
    "MEAN_MOTION_DOT": -2.157e-05,
    "MEAN_MOTION_DDOT": 0.0,
    "TLE_LINE1": "1 53926U 22119AS  25315.15688560 -.00002157  00000+0 -11744-3 0  9991",
    "TLE_LINE2": "2 53926  53.2150 121.0199 0001105  82.1953 277.9165 15.08853906174016",
    "COMMENT": "Grouped by shell and plane from TLE"
  },
  {
    "OBJECT_NAME": "STARLINK-5018",
    "OBJECT_ID": "22119AV",
    "EPOCH": "2025-11-10T18:01:11.019072",
    "MEAN_MOTION": 15.08843672,
    "ECCENTRICITY": 0.000134,
    "INCLINATION": 53.2158,
    "RA_OF_ASC_NODE": 128.4307,
    "ARG_OF_PERICENTER": 93.3597,
    "MEAN_ANOMALY": 266.7549,
    "EPHEMERIS_TYPE": 0,
    "CLASSIFICATION_TYPE": "U",
    "NORAD_CAT_ID": 53929,
    "ELEMENT_SET_NO": 999,
    "REV_AT_EPOCH": 17386,
    "BSTAR": 4.0183000000000005e-05,
    "MEAN_MOTION_DOT": 3.52e-06,
    "MEAN_MOTION_DDOT": 0.0,
    "TLE_LINE1": "1 53929U 22119AV  25314.75082198  .00000352  00000+0  40183-4 0  9997",
    "TLE_LINE2": "2 53929  53.2158 128.4307 0001340  93.3597 266.7549 15.08843672173861",
    "COMMENT": "Grouped by shell and plane from TLE"
  },
  {
    "OBJECT_NAME": "STARLINK-5169",
    "OBJECT_ID": "22136K",
    "EPOCH": "2025-11-11T05:07:22.303776",
    "MEAN_MOTION": 15.08848711,
    "ECCENTRICITY": 0.0001447,
    "INCLINATION": 53.215,
    "RA_OF_ASC_NODE": 125.6355,
    "ARG_OF_PERICENTER": 90.5606,
    "MEAN_ANOMALY": 269.5552,
    "EPHEMERIS_TYPE": 0,
    "CLASSIFICATION_TYPE": "U",
    "NORAD_CAT_ID": 54060,
    "ELEMENT_SET_NO": 999,
    "REV_AT_EPOCH": 16938,
    "BSTAR": 0.00014222,
    "MEAN_MOTION_DOT": 1.977e-05,
    "MEAN_MOTION_DDOT": 0.0,
    "TLE_LINE1": "1 54060U 22136K   25315.21345259  .00001977  00000+0  14222-3 0  9993",
    "TLE_LINE2": "2 54060  53.2150 125.6355 0001447  90.5606 269.5552 15.08848711169386",
    "COMMENT": "Grouped by shell and plane from TLE"
  },
  {
    "OBJECT_NAME": "STARLINK-5209",
    "OBJECT_ID": "22136L",
    "EPOCH": "2025-11-10T21:08:26.872512",
    "MEAN_MOTION": 15.08844082,
    "ECCENTRICITY": 0.0001327,
    "INCLINATION": 53.2152,
    "RA_OF_ASC_NODE": 122.0834,
    "ARG_OF_PERICENTER": 91.6403,
    "MEAN_ANOMALY": 268.4741,
    "EPHEMERIS_TYPE": 0,
    "CLASSIFICATION_TYPE": "U",
    "NORAD_CAT_ID": 54061,
    "ELEMENT_SET_NO": 999,
    "REV_AT_EPOCH": 16940,
    "BSTAR": 4.9323e-05,
    "MEAN_MOTION_DOT": 4.97e-06,
    "MEAN_MOTION_DDOT": 0.0,
    "TLE_LINE1": "1 54061U 22136L   25314.88086658  .00000497  00000+0  49323-4 0  9998",
    "TLE_LINE2": "2 54061  53.2152 122.0834 0001327  91.6403 268.4741 15.08844082169404",
    "COMMENT": "Grouped by shell and plane from TLE"
  },
  {
    "OBJECT_NAME": "STARLINK-5197",
    "OBJECT_ID": "22136AY",
    "EPOCH": "2025-11-10T20:10:15.583296",
    "MEAN_MOTION": 15.08810437,
    "ECCENTRICITY": 0.0001765,
    "INCLINATION": 53.2112,
    "RA_OF_ASC_NODE": 122.5847,
    "ARG_OF_PERICENTER": 94.9107,
    "MEAN_ANOMALY": 265.2087,
    "EPHEMERIS_TYPE": 0,
    "CLASSIFICATION_TYPE": "U",
    "NORAD_CAT_ID": 54097,
    "ELEMENT_SET_NO": 999,
    "REV_AT_EPOCH": 16939,
    "BSTAR": 0.0,
    "MEAN_MOTION_DOT": -2.716e-05,
    "MEAN_MOTION_DDOT": 0.0,
    "TLE_LINE1": "1 54097U 22136AY  25314.84045814 -.00002716  00000+0 -15271-3 0  9994",
    "TLE_LINE2": "2 54097  53.2112 122.5847 0001765  94.9107 265.2087 15.08810437169394",
    "COMMENT": "Grouped by shell and plane from TLE"
  },
  {
    "OBJECT_NAME": "STARLINK-5200",
    "OBJECT_ID": "22136BE",
    "EPOCH": "2025-11-10T21:26:24.719424",
    "MEAN_MOTION": 15.0869208,
    "ECCENTRICITY": 0.0001466,
    "INCLINATION": 53.215,
    "RA_OF_ASC_NODE": 127.2013,
    "ARG_OF_PERICENTER": 124.0889,
    "MEAN_ANOMALY": 236.0243,
    "EPHEMERIS_TYPE": 0,
    "CLASSIFICATION_TYPE": "U",
    "NORAD_CAT_ID": 54103,
    "ELEMENT_SET_NO": 999,
    "REV_AT_EPOCH": 16933,
    "BSTAR": 0.0022231,
    "MEAN_MOTION_DOT": 0.00035126,
    "MEAN_MOTION_DDOT": 0.0,
    "TLE_LINE1": "1 54103U 22136BE  25314.89334166  .00035126  00000+0  22231-2 0  9990",
    "TLE_LINE2": "2 54103  53.2150 127.2013 0001466 124.0889 236.0243 15.08692080169337",
    "COMMENT": "Grouped by shell and plane from TLE"
  },
  {
    "OBJECT_NAME": "STARLINK-5248",
    "OBJECT_ID": "22141T",
    "EPOCH": "2025-11-10T20:41:58.879392",
    "MEAN_MOTION": 15.08844814,
    "ECCENTRICITY": 0.0001532,
    "INCLINATION": 53.2135,
    "RA_OF_ASC_NODE": 122.2968,
    "ARG_OF_PERICENTER": 94.3001,
    "MEAN_ANOMALY": 265.8166,
    "EPHEMERIS_TYPE": 0,
    "CLASSIFICATION_TYPE": "U",
    "NORAD_CAT_ID": 54174,
    "ELEMENT_SET_NO": 999,
    "REV_AT_EPOCH": 16869,
    "BSTAR": 0.0,
    "MEAN_MOTION_DOT": -1.403e-05,
    "MEAN_MOTION_DDOT": 0.0,
    "TLE_LINE1": "1 54174U 22141T   25314.86248703 -.00001403  00000+0 -70039-4 0  9996",
    "TLE_LINE2": "2 54174  53.2135 122.2968 0001532  94.3001 265.8166 15.08844814168697",
    "COMMENT": "Grouped by shell and plane from TLE"
  }
]